[
    {
        "CCSDS_OMM_VERS": "3.0",
        "COMMENT": "GENERATED VIA SPACE-TRACK.ORG API",
        "CREATION_DATE": "2025-05-04T02:26:54",
        "ORIGINATOR": "18 SPCS",
        "OBJECT_NAME": "QZS-3",
        "OBJECT_ID": "2017-048A",
        "CENTER_NAME": "EARTH",
        "REF_FRAME": "TEME",
        "TIME_SYSTEM": "UTC",
        "MEAN_ELEMENT_THEORY": "SGP4",
        "EPOCH": "2025-05-03T21:49:34.214592",
        "MEAN_MOTION": "1.00275725",
        "ECCENTRICITY": "0.00031790",
        "INCLINATION": "0.0599",
        "RA_OF_ASC_NODE": "214.3788",
        "ARG_OF_PERICENTER": "196.1416",
        "MEAN_ANOMALY": "265.9029",
        "EPHEMERIS_TYPE": "0",
        "CLASSIFICATION_TYPE": "U",
        "NORAD_CAT_ID": "42917",
        "ELEMENT_SET_NO": "999",
        "REV_AT_EPOCH": "2815",
        "BSTAR": "0.00000000000000",
        "MEAN_MOTION_DOT": "-0.00000359",
        "MEAN_MOTION_DDOT": "0.0000000000000",
        "SEMIMAJOR_AXIS": "42163.627",
        "PERIOD": "1436.040",
        "APOAPSIS": "35798.896",
        "PERIAPSIS": "35772.089",
        "OBJECT_TYPE": "PAYLOAD",
        "RCS_SIZE": "LARGE",
        "COUNTRY_CODE": "JPN",
        "LAUNCH_DATE": "2017-08-19",
        "SITE": "TNSTA",
        "DECAY_DATE": null,
        "FILE": "4718307",
        "GP_ID": "286799017",
        "TLE_LINE0": "0 QZS-3",
        "TLE_LINE1": "1 42917U 17048A   25123.90942378 -.00000359  00000-0  00000-0 0  9996",
        "TLE_LINE2": "2 42917   0.0599 214.3788 0003179 196.1416 265.9029  1.00275725 28157"
    }
]